;FLAVOR:Marlin
;TIME:3884
;Filament used: 0m, 8.0393m
;Layer height: 0.5
;MINX:211
;MINY:216
;MINZ:0.5
;MAXX:288.999
;MAXY:283.999
;MAXZ:13.15
;TARGET_MACHINE.NAME:Unknown
;Generated with Cura_SteamEngine 5.13.0
T1
M104 S250
M105
M109 S250
G21 ; set units to millimeters
G90 ; use absolute coordinates
G28 ; home all axes
G1 Z5 F5000 ; lift nozzle
M106 S255 ; fan on full
M82 ;absolute extrusion mode
G92 E0
G92 E0
G1 F2400 E-15
;LAYER_COUNT:20
;LAYER:-7
M106 S255
G0 F600 X218.181 Y222.878 Z0.5
;TYPE:SUPPORT-INTERFACE
G1 F900 E3.00173
G1 F225 X219.13 Y221.999 E3.53952
G1 X220.139 Y221.155 E4.08642
G1 X221.317 Y220.285 E4.69526
G1 X222.402 Y219.572 E5.23504
G1 X223.565 Y218.9 E5.79347
G1 X224.76 Y218.295 E6.35033
G1 X225.136 Y218.116 E6.52347
G1 X225.146 Y218.123 E6.52854
G1 X225.873 Y217.803 E6.85878
G1 X227.53 Y217.182 E7.59447
G1 X227.547 Y217.195 E7.60337
G1 X228.503 Y216.896 E8.01981
G1 X229.784 Y216.576 E8.56876
G1 X230.189 Y216.484 E8.74142
G1 X230.199 Y216.492 E8.74675
G1 X231.273 Y216.293 E9.20087
G1 X232.783 Y216.096 E9.83397
G1 X232.793 Y216.106 E9.83985
G1 X234.073 Y216.008 E10.37357
G1 X234.081 Y216.016 E10.37827
G1 X235.049 Y216 E10.78078
G1 X265.017 Y216 E23.24002
G1 X266.139 Y216.032 E23.70669
G1 X266.149 Y216.024 E23.71201
G1 X267.874 Y216.174 E24.43189
G1 X268.752 Y216.297 E24.80048
G1 X269.179 Y216.368 E24.98045
G1 X270.267 Y216.587 E25.44186
G1 X271.788 Y216.982 E26.09519
G1 X272.614 Y217.241 E26.45509
G1 X273.191 Y217.446 E26.70967
G1 X274.271 Y217.863 E27.19099
G1 X275.586 Y218.466 E27.79244
G1 X276.801 Y219.104 E28.36299
G1 X277.897 Y219.763 E28.89468
G1 X279.035 Y220.537 E29.46686
G1 X280.063 Y221.319 E30.00386
G1 X281.143 Y222.245 E30.59532
G1 X282.071 Y223.138 E31.13076
G1 X283.041 Y224.178 E31.72202
G1 X283.843 Y225.141 E32.24305
G1 X284.548 Y226.081 E32.73156
G1 X284.745 Y226.367 E32.87594
G1 X285.467 Y227.472 E33.42472
G1 X286.076 Y228.525 E33.93045
G1 X286.687 Y229.732 E34.49289
G1 X287.228 Y230.964 E35.05231
G1 X287.744 Y232.355 E35.66913
G1 X288.1 Y233.501 E36.16804
G1 X288.5 Y235.134 E36.86703
G1 X288.688 Y236.164 E37.30233
G1 X288.865 Y237.493 E37.85974
G1 X288.99 Y239.117 E38.53692
G1 X288.976 Y239.131 E38.54515
G1 X288.999 Y240.006 E38.90906
G1 X288.996 Y260.017 E47.22867
G1 X288.964 Y261.143 E47.69699
G1 X288.974 Y261.153 E47.70287
G1 X288.867 Y262.454 E48.24559
G1 X288.875 Y262.463 E48.2506
G1 X288.63 Y264.178 E48.97085
G1 X288.401 Y265.315 E49.45305
G1 X288.022 Y266.774 E50.07977
G1 X287.756 Y267.612 E50.4453
G1 X287.55 Y268.191 E50.7008
G1 X287.132 Y269.273 E51.18304
G1 X286.561 Y270.531 E51.75741
G1 X285.894 Y271.795 E52.3516
G1 X285.239 Y272.893 E52.88315
G1 X284.443 Y274.061 E53.4708
G1 X283.608 Y275.144 E54.03935
G1 X282.706 Y276.192 E54.61421
G1 X281.713 Y277.224 E55.20963
G1 X281.701 Y277.224 E55.21462
G1 X280.785 Y278.07 E55.73303
G1 X279.747 Y278.928 E56.29292
G1 X278.827 Y279.609 E56.7688
G1 X278.572 Y279.784 E56.89738
G1 X277.529 Y280.463 E57.4148
G1 X276.341 Y281.147 E57.98473
G1 X275.157 Y281.741 E58.53545
G1 X273.701 Y282.369 E59.1947
G1 X273.688 Y282.36 E59.20127
G1 X272.584 Y282.764 E59.69003
G1 X271.495 Y283.1 E60.16384
G1 X270.154 Y283.434 E60.7384
G1 X269.785 Y283.517 E60.89564
G1 X269.779 Y283.511 E60.89917
G1 X268.725 Y283.703 E61.34458
G1 X267.213 Y283.9 E61.97851
G1 X267.203 Y283.89 E61.98439
G1 X265.923 Y283.988 E62.51811
G1 X265.915 Y283.98 E62.52282
G1 X264.945 Y283.999 E62.92617
G1 X234.979 Y283.996 E75.38459
G1 X233.857 Y283.964 E75.85125
G1 X233.843 Y283.977 E75.85919
G1 X232.127 Y283.826 E76.57538
G1 X231.246 Y283.699 E76.94544
G1 X230.818 Y283.628 E77.12582
G1 X229.729 Y283.409 E77.58763
G1 X228.208 Y283.014 E78.24097
G1 X227.383 Y282.755 E78.60047
G1 X226.805 Y282.549 E78.85558
G1 X226.051 Y282.265 E79.19056
G1 X225.721 Y282.129 E79.33895
G1 X224.558 Y281.604 E79.86945
G1 X223.196 Y280.894 E80.50802
G1 X222.099 Y280.234 E81.04029
G1 X221.114 Y279.569 E81.53439
G1 X219.932 Y278.676 E82.15029
G1 X218.845 Y277.743 E82.74586
G1 X217.918 Y276.854 E83.27984
G1 X216.916 Y275.775 E83.89203
G1 X216.15 Y274.852 E84.39071
G1 X215.447 Y273.914 E84.87805
G1 X215.281 Y273.676 E84.99869
G1 X214.552 Y272.563 E85.55185
G1 X213.916 Y271.462 E86.08047
G1 X213.293 Y270.236 E86.65222
G1 X213.118 Y269.856 E86.82615
G1 X213.122 Y269.85 E86.82915
G1 X212.803 Y269.122 E87.1596
G1 X212.279 Y267.732 E87.77719
G1 X211.884 Y266.447 E88.33611
G1 X211.576 Y265.212 E88.86529
G1 X211.484 Y264.807 E89.03795
G1 X211.492 Y264.797 E89.04328
G1 X211.296 Y263.773 E89.47674
G1 X211.132 Y262.489 E90.0149
G1 X211.007 Y260.875 E90.68793
G1 X211.016 Y260.865 E90.69353
G1 X211 Y259.994 E91.05571
G1 X211 Y239.979 E99.37698
G1 X211.032 Y238.853 E99.8453
G1 X211.023 Y238.843 E99.85089
G1 X211.154 Y237.29 E100.49885
G1 X211.362 Y235.848 E101.10457
G1 X211.631 Y234.54 E101.65975
G1 X211.976 Y233.229 E102.22336
G1 X212.45 Y231.794 E102.85167
G1 X212.863 Y230.725 E103.32812
G1 X213.466 Y229.41 E103.92958
G1 X214.1 Y228.203 E104.4964
G1 X214.756 Y227.115 E105.0246
G1 X215.537 Y225.961 E105.60393
G1 X216.316 Y224.94 E106.13785
G1 X217.199 Y223.899 E106.70538
G1 X218.181 Y222.878 E107.29433
G0 F600 X218.418 Y224.074
G1 F225 X275.028 Y280.685 E140.57914
G0 F600 X278.561 Y278.561
G1 F225 X221.439 Y221.439 E174.16468
G0 F600 X224.967 Y219.311
G1 F225 X281.579 Y275.922 E207.45007
G0 F600 X284.103 Y272.79
G1 F225 X229.093 Y217.78 E239.79385
G0 F600 X233.99 Y217.02
G1 F225 X286.1 Y269.129 E270.43224
G0 F600 X287.476 Y264.848
G1 F225 X239.628 Y217 E298.56503
G0 F600 X245.285 Y217
G1 F225 X287.997 Y259.713 E323.67834
G0 F600 X287.998 Y254.056
G1 F225 X250.942 Y217 E345.46585
G0 F600 X256.598 Y217
G1 F225 X287.998 Y248.4 E363.92784
G0 F600 X287.999 Y242.744
G1 F225 X262.255 Y217 E379.06433
G0 F600 X268.132 Y217.22
G1 F225 X287.772 Y236.86 E390.6119
G0 F600 X284.685 Y228.117
G1 F225 X276.898 Y220.33 E395.19035
G0 F600 X215.897 Y227.211
G1 F225 X270.903 Y282.216 E427.53148
G0 F600 X266.006 Y282.976
G1 F225 X213.897 Y230.868 E458.16928
G0 F600 X212.525 Y235.153
G1 F225 X260.371 Y282.998 E486.3006
G0 F600 X254.713 Y282.998
G1 F225 X212 Y240.284 E511.4145
G0 F600 X212 Y245.941
G1 F225 X249.056 Y282.997 E533.20201
G0 F600 X243.399 Y282.997
G1 F225 X212 Y251.598 E551.66342
G0 F600 X212 Y257.255
G1 F225 X237.741 Y282.996 E566.79814
G0 F600 X231.866 Y282.778
G1 F225 X212.223 Y263.134 E578.34776
G0 F600 X215.315 Y271.883
G1 F225 X223.102 Y279.671 E582.92652
G0 F600 Z1
G0 X213.785 Y231.126
;TIME_ELAPSED:427.414772
;LAYER:-6
;TYPE:SUPPORT
G1 F225 X226.116 Y218.795 E590.17667
G1 X225.218 Y219.186 E590.58387
G1 X224.043 Y219.78 E591.13125
G1 X222.969 Y220.401 E591.64704
G1 X221.94 Y221.071 E592.15754
G1 X220.777 Y221.925 E592.75742
G1 X219.795 Y222.746 E593.28958
G1 X218.842 Y223.635 E593.83142
G1 X218.02 Y224.492 E594.32512
G1 X217.123 Y225.533 E594.89642
G1 X216.294 Y226.621 E595.4651
G1 X215.549 Y227.73 E596.02055
G1 X214.98 Y228.682 E596.48165
G1 X214.353 Y229.873 E597.04124
G1 X213.766 Y231.168 E597.63237
G1 X213.305 Y232.372 E598.16837
G1 X212.933 Y233.524 E598.67167
G1 X212.575 Y234.893 E599.25997
G1 X212.44 Y235.583 E599.55228
G1 X230.585 Y217.437 E610.22114
G1 X231.466 Y217.276 E610.59348
G1 X232.671 Y217.121 E611.09859
G1 X234.113 Y217.021 E611.69954
G1 X212.027 Y239.107 E624.68526
G1 X212.001 Y240.021 E625.06541
G1 X212.001 Y242.244 E625.98963
G1 X237.246 Y217 E640.83243
G1 X240.357 Y217 E642.12583
G1 X212.001 Y245.355 E658.79778
G1 X212.001 Y248.467 E660.0916
G1 X243.468 Y217 E678.59299
G1 X246.579 Y217 E679.88639
G1 X212.001 Y251.579 E700.21723
G1 X212.001 Y254.69 E701.51063
G1 X249.691 Y217 E723.6709
G1 X252.801 Y217 E724.96389
G1 X212.001 Y257.801 E748.95302
G1 X212 Y259.976 E749.85728
G1 X212.022 Y260.891 E750.23781
G1 X255.913 Y217 E776.04403
G1 X259.024 Y217 E777.33743
G1 X212.31 Y263.715 E804.80377
G1 X212.508 Y264.792 E805.25904
G1 X212.844 Y266.166 E805.84711
G1 X212.874 Y266.261 E805.88853
G1 X262.135 Y217 E834.85211
G1 X264.98 Y217.001 E836.03493
G1 X265.239 Y217.008 E836.14265
G1 X213.664 Y268.582 E866.46648
G1 X214.206 Y269.824 E867.02987
G1 X214.651 Y270.707 E867.44096
G1 X268.131 Y217.227 E898.88515
G1 X268.96 Y217.346 E899.23334
G1 X270.073 Y217.569 E899.70527
G1 X270.73 Y217.739 E899.98741
G1 X215.81 Y272.659 E932.27827
G1 X216.067 Y273.053 E932.47384
G1 X216.93 Y274.23 E933.08062
G1 X217.122 Y274.459 E933.20487
G1 X273.097 Y218.483 E966.11632
G1 X273.93 Y218.807 E966.48791
G1 X275.126 Y219.352 E967.03434
G1 X275.266 Y219.426 E967.10018
G1 X218.586 Y276.106 E1000.42585
G1 X219.622 Y277.099 E1001.02247
G1 X220.205 Y277.598 E1001.34151
G1 X277.257 Y220.546 E1034.8859
G1 X277.393 Y220.628 E1034.95193
G1 X278.494 Y221.378 E1035.50578
G1 X279.085 Y221.829 E1035.81486
G1 X221.973 Y278.942 E1069.39482
G1 X222.607 Y279.372 E1069.71332
G1 X223.681 Y280.02 E1070.23481
G1 X223.893 Y280.132 E1070.3345
G1 X280.76 Y223.265 E1103.77011
G1 X281.367 Y223.844 E1104.11887
G1 X282.293 Y224.844 E1104.6855
G1 X225.986 Y281.151 E1137.79185
G1 X226.167 Y281.233 E1137.87447
G1 X227.253 Y281.653 E1138.35856
G1 X228.265 Y281.983 E1138.80111
G1 X283.666 Y226.582 E1171.37477
G1 X283.914 Y226.918 E1171.5484
G1 X284.613 Y227.993 E1172.0815
G1 X284.888 Y228.472 E1172.31114
G1 X230.761 Y282.599 E1204.13574
G1 X231.04 Y282.655 E1204.25404
G1 X232.482 Y282.86 E1204.85959
G1 X233.523 Y282.948 E1205.29393
G1 X285.948 Y230.523 E1236.11782
G1 X286.333 Y231.406 E1236.51831
G1 X286.79 Y232.646 E1237.06773
G1 X286.824 Y232.758 E1237.1164
G1 X236.582 Y283 E1266.65677
G1 X239.694 Y283 E1267.95059
G1 X287.49 Y235.204 E1296.0528
G1 X287.718 Y236.42 E1296.56717
G1 X287.872 Y237.61 E1297.06604
G1 X287.894 Y237.911 E1297.19151
G1 X242.805 Y283 E1323.70212
G1 X245.916 Y283 E1324.99552
G1 X287.999 Y240.917 E1349.73871
G1 X287.999 Y244.028 E1351.03211
G1 X249.027 Y283 E1373.94616
G1 X252.138 Y283 E1375.23956
G1 X287.999 Y247.139 E1396.32445
G1 X287.999 Y250.251 E1397.61827
G1 X255.249 Y283 E1416.87372
G1 X258.361 Y283 E1418.16754
G1 X287.999 Y253.362 E1435.59355
G1 X287.999 Y256.473 E1436.88696
G1 X261.472 Y283 E1452.48381
G1 X264.583 Y283 E1453.77722
G1 X287.999 Y259.585 E1467.54463
G1 X287.999 Y259.979 E1467.70844
G1 X287.963 Y261.268 E1468.24455
G1 X287.857 Y262.54 E1468.77522
G1 X287.809 Y262.886 E1468.92045
G1 X267.887 Y282.808 E1480.63382
G1 X268.534 Y282.724 E1480.90507
G1 X269.78 Y282.495 E1481.43178
G1 X271.212 Y282.141 E1482.04505
G1 X271.868 Y281.938 E1482.33055
G1 X286.94 Y266.866 E1491.1923
G1 X286.652 Y267.75 E1491.57884
G1 X286.193 Y268.93 E1492.10524
G1 X285.649 Y270.126 E1492.6515
G1 X285.028 Y271.302 E1493.2044
G1 X284.37 Y272.396 E1493.73517
G1 X284.055 Y272.862 E1493.96902
G1 X277.858 Y279.059 E1497.61261
G0 F600 Z1.5
G0 X285.271 Y229.137
;TIME_ELAPSED:1019.285556
;LAYER:-5
;TYPE:SUPPORT
G1 F225 X284.613 Y227.993 E1498.1613
G1 X283.914 Y226.918 E1498.6944
G1 X283.104 Y225.816 E1499.26301
G1 X282.242 Y224.781 E1499.82301
G1 X281.367 Y223.844 E1500.35601
G1 X280.377 Y222.902 E1500.92416
G1 X279.45 Y222.109 E1501.43134
G1 X278.494 Y221.378 E1501.93168
G1 X277.393 Y220.628 E1502.48553
G1 X276.319 Y219.98 E1503.00703
G1 X275.61 Y219.607 E1503.3401
G1 X285.403 Y229.4 E1509.09801
G1 X285.833 Y230.26 E1509.49776
G1 X286.333 Y231.406 E1510.01758
G1 X286.79 Y232.646 E1510.56701
G1 X287.182 Y233.934 E1511.12675
G1 X287.297 Y234.405 E1511.32832
G1 X270.597 Y217.705 E1521.14728
G1 X270.073 Y217.569 E1521.37235
G1 X268.96 Y217.346 E1521.84428
G1 X267.518 Y217.14 E1522.44988
G1 X266.866 Y217.085 E1522.72192
G1 X287.911 Y238.13 E1535.09557
G1 X287.978 Y239.057 E1535.48198
G1 X288 Y240.017 E1535.8812
G1 X288 Y241.331 E1536.4275
G1 X263.67 Y217.001 E1550.73261
G1 X260.559 Y217.001 E1552.02601
G1 X288 Y244.442 E1568.16027
G1 X288 Y247.553 E1569.45367
G1 X257.448 Y217.001 E1587.41708
G1 X254.336 Y217.001 E1588.7109
G1 X288 Y250.664 E1608.50374
G1 X288 Y253.776 E1609.79756
G1 X251.225 Y217.001 E1631.41985
G1 X248.113 Y217 E1632.71367
G1 X288 Y256.887 E1656.1657
G1 X287.999 Y259.998 E1657.4591
G1 X245.002 Y217 E1682.73999
G1 X241.891 Y217 E1684.03339
G1 X287.805 Y262.915 E1711.02936
G1 X287.689 Y263.749 E1711.37943
G1 X287.43 Y265.079 E1711.94277
G1 X287.313 Y265.534 E1712.13809
G1 X238.779 Y217 E1740.67422
G1 X235.668 Y217 E1741.96762
G1 X286.587 Y267.919 E1771.90604
G1 X286.193 Y268.93 E1772.35716
G1 X285.66 Y270.103 E1772.89282
G1 X232.677 Y217.121 E1804.0445
G1 X231.466 Y217.276 E1804.55208
G1 X230.22 Y217.505 E1805.07879
G1 X230.003 Y217.558 E1805.17166
G1 X284.548 Y272.102 E1837.24173
G1 X284.37 Y272.396 E1837.38462
G1 X283.72 Y273.358 E1837.86731
G1 X283.275 Y273.942 E1838.17257
G1 X227.57 Y218.236 E1870.92527
G1 X226.427 Y218.66 E1871.43211
G1 X225.351 Y219.129 E1871.92011
G1 X281.858 Y275.636 E1905.14406
G1 X281.167 Y276.356 E1905.55895
G1 X280.288 Y277.177 E1906.05901
G1 X223.314 Y220.202 E1939.55783
G1 X222.969 Y220.401 E1939.72342
G1 X221.94 Y221.071 E1940.23392
G1 X221.44 Y221.44 E1940.49228
G1 X278.56 Y278.56 E1974.07665
G1 X278.086 Y278.91 E1974.32162
G1 X277.017 Y279.608 E1974.85241
G1 X276.687 Y279.798 E1975.01072
G1 X219.713 Y222.824 E2008.50925
G1 X218.842 Y223.635 E2009.00404
G1 X218.142 Y224.364 E2009.42422
G1 X274.647 Y280.87 E2042.64729
G1 X273.561 Y281.345 E2043.1401
G1 X272.43 Y281.764 E2043.64154
G1 X216.723 Y226.057 E2076.39512
G1 X216.294 Y226.621 E2076.68973
G1 X215.549 Y227.73 E2077.24518
G1 X215.45 Y227.895 E2077.32518
G1 X269.996 Y282.441 E2109.39614
G1 X269.78 Y282.495 E2109.4887
G1 X268.534 Y282.724 E2110.01541
G1 X267.323 Y282.879 E2110.52299
G1 X214.341 Y229.897 E2141.67437
G1 X213.766 Y231.168 E2142.25435
G1 X213.415 Y232.083 E2142.6618
G1 X264.332 Y283 E2172.59904
G1 X261.221 Y283 E2173.89244
G1 X212.686 Y234.465 E2202.42916
G1 X212.575 Y234.893 E2202.61299
G1 X212.325 Y236.164 E2203.15154
G1 X212.195 Y237.085 E2203.53824
G1 X258.11 Y283 E2230.5345
G1 X254.998 Y283 E2231.82832
G1 X212.001 Y240.003 E2257.10891
G1 X212.001 Y243.113 E2258.4019
G1 X251.887 Y283 E2281.85363
G1 X248.775 Y282.999 E2283.14745
G1 X212.001 Y246.224 E2304.76945
G1 X212.001 Y249.336 E2306.06326
G1 X245.664 Y282.999 E2325.85582
G1 X242.552 Y282.999 E2327.14964
G1 X212 Y252.446 E2345.11334
G1 X212 Y255.558 E2346.40716
G1 X239.441 Y282.999 E2362.54141
G1 X236.33 Y282.999 E2363.83482
G1 X212 Y258.669 E2378.13992
G1 X212 Y259.976 E2378.68331
G1 X212.023 Y260.978 E2379.1
G1 X212.089 Y261.869 E2379.47145
G1 X233.135 Y282.915 E2391.84569
G1 X232.482 Y282.86 E2392.11814
G1 X231.04 Y282.655 E2392.72368
G1 X229.927 Y282.431 E2393.19569
G1 X229.403 Y282.295 E2393.42077
G1 X212.705 Y265.596 E2403.23884
G1 X212.844 Y266.166 E2403.48277
G1 X213.225 Y267.396 E2404.01811
G1 X213.672 Y268.604 E2404.55362
G1 X214.206 Y269.824 E2405.1073
G1 X214.596 Y270.599 E2405.468
G1 X224.391 Y280.394 E2411.22709
G1 X223.681 Y280.02 E2411.56072
G1 X222.607 Y279.372 E2412.08222
G1 X221.515 Y278.629 E2412.63134
G1 X220.522 Y277.868 E2413.15147
G1 X219.622 Y277.099 E2413.64364
G1 X218.625 Y276.15 E2414.2159
G1 X217.757 Y275.217 E2414.7457
G1 X216.93 Y274.23 E2415.28105
G1 X216.067 Y273.053 E2415.88784
G1 X215.406 Y272.042 E2416.39003
G1 X214.733 Y270.87 E2416.95191
G0 F600 Z2
G0 X214.534 Y229.529
;TIME_ELAPSED:1613.228151
;LAYER:-4
;TYPE:SUPPORT-INTERFACE
G1 F300 X224.529 Y219.534 E2422.82859
G1 X224.043 Y219.78 E2423.05505
G1 X222.969 Y220.401 E2423.57084
G1 X221.94 Y221.071 E2424.08134
G1 X220.777 Y221.925 E2424.68122
G1 X219.795 Y222.746 E2425.21337
G1 X218.842 Y223.635 E2425.75521
G1 X218.02 Y224.492 E2426.24892
G1 X217.123 Y225.533 E2426.82022
G1 X216.294 Y226.621 E2427.3889
G1 X215.549 Y227.73 E2427.94435
G1 X214.98 Y228.682 E2428.40545
G1 X214.353 Y229.873 E2428.96504
G1 X213.766 Y231.168 E2429.55616
G1 X213.305 Y232.372 E2430.09217
G1 X212.933 Y233.524 E2430.59546
G1 X212.78 Y234.112 E2430.84807
G1 X229.113 Y217.778 E2440.45154
G1 X230.22 Y217.505 E2440.92557
G1 X231.466 Y217.276 E2441.45227
G1 X232.589 Y217.131 E2441.92303
G1 X212.133 Y237.587 E2453.95038
G1 X212.037 Y238.731 E2454.42767
G1 X212.001 Y240.021 E2454.9642
G1 X212.001 Y240.547 E2455.18288
G1 X235.549 Y217 E2469.02791
G1 X238.377 Y217 E2470.20366
G1 X212.001 Y243.376 E2485.71173
G1 X212.001 Y246.204 E2486.88748
G1 X241.205 Y217 E2504.05831
G1 X244.034 Y217 E2505.23447
G1 X212.001 Y249.032 E2524.06836
G1 X212.001 Y251.862 E2525.24493
G1 X246.862 Y217 E2545.74216
G1 X249.691 Y217 E2546.91832
G1 X212.001 Y254.69 E2569.0786
G1 X212.001 Y257.518 E2570.25434
G1 X252.518 Y217 E2594.07708
G1 X255.347 Y217 E2595.25324
G1 X212.008 Y260.339 E2620.73491
G1 X212.023 Y260.978 E2621.00065
G1 X212.126 Y262.367 E2621.57971
G1 X212.203 Y262.972 E2621.83327
G1 X258.175 Y217 E2648.86305
G1 X261.004 Y217 E2650.03921
G1 X212.647 Y265.357 E2678.47127
G1 X212.844 Y266.166 E2678.81744
G1 X213.225 Y267.396 E2679.35279
G1 X213.282 Y267.55 E2679.42106
G1 X263.832 Y217 E2709.14252
G1 X264.98 Y217.001 E2709.61981
G1 X266.319 Y217.039 E2710.17672
G1 X266.598 Y217.063 E2710.29314
G1 X214.094 Y269.567 E2741.16348
G1 X214.206 Y269.824 E2741.28004
G1 X214.733 Y270.87 E2741.76699
G1 X215.057 Y271.433 E2742.03705
G1 X269.114 Y217.376 E2773.8205
G1 X270.073 Y217.569 E2774.2272
G1 X271.403 Y217.915 E2774.79855
G1 X216.151 Y273.167 E2807.28461
G1 X216.93 Y274.23 E2807.83252
G1 X217.38 Y274.766 E2808.12349
G1 X273.505 Y218.642 E2841.12254
G1 X273.93 Y218.807 E2841.31208
G1 X275.126 Y219.352 E2841.85852
G1 X275.452 Y219.523 E2842.01156
G1 X218.727 Y276.248 E2875.36369
G1 X219.622 Y277.099 E2875.87714
G1 X220.205 Y277.598 E2876.19619
G1 X277.257 Y220.546 E2909.74058
G1 X277.393 Y220.628 E2909.8066
G1 X278.494 Y221.378 E2910.36046
G1 X278.925 Y221.707 E2910.58589
G1 X221.805 Y278.827 E2944.17026
G1 X222.607 Y279.372 E2944.57339
G1 X223.53 Y279.93 E2945.02181
G1 X280.47 Y222.99 E2978.50034
G1 X281.367 Y223.844 E2979.01526
G1 X281.887 Y224.402 E2979.33237
G1 X225.402 Y280.887 E3012.54338
G1 X226.167 Y281.233 E3012.89245
G1 X227.253 Y281.653 E3013.37655
G1 X227.411 Y281.706 E3013.44583
G1 X283.187 Y225.93 E3046.23998
G1 X283.914 Y226.918 E3046.74997
G1 X284.352 Y227.593 E3047.0845
G1 X229.599 Y282.346 E3079.27717
G1 X229.927 Y282.431 E3079.41804
G1 X231.04 Y282.655 E3079.89005
G1 X231.984 Y282.79 E3080.28651
G1 X285.393 Y229.381 E3111.68896
G1 X285.833 Y230.26 E3112.09763
G1 X286.291 Y231.311 E3112.57427
G1 X234.614 Y282.988 E3142.95837
G1 X235.02 Y282.999 E3143.12723
G1 X237.431 Y283 E3144.1296
G1 X287.022 Y233.409 E3173.28721
G1 X287.182 Y233.934 E3173.51539
G1 X287.492 Y235.21 E3174.06132
G1 X287.58 Y235.679 E3174.25971
G1 X240.259 Y283 E3202.08265
G1 X243.088 Y283 E3203.25881
G1 X287.913 Y238.174 E3229.61448
G1 X287.978 Y239.057 E3229.98259
G1 X288 Y240.017 E3230.38181
G1 X287.999 Y240.917 E3230.75599
G1 X245.916 Y283 E3255.49918
G1 X248.745 Y283 E3256.67534
G1 X287.999 Y243.745 E3279.75548
G1 X287.999 Y246.574 E3280.93165
G1 X251.572 Y283 E3302.34903
G1 X254.401 Y283 E3303.52519
G1 X287.999 Y249.402 E3323.27953
G1 X287.999 Y252.231 E3324.45569
G1 X257.229 Y283 E3342.54698
G1 X260.058 Y283 E3343.72314
G1 X287.999 Y255.059 E3360.15138
G1 X287.999 Y257.887 E3361.32712
G1 X262.886 Y283 E3376.0926
G1 X264.924 Y283 E3376.93991
G1 X265.732 Y282.983 E3377.27591
G1 X287.978 Y260.737 E3390.3557
G1 X287.963 Y261.268 E3390.57655
G1 X287.857 Y262.54 E3391.10722
G1 X287.689 Y263.749 E3391.6147
G1 X287.664 Y263.88 E3391.67014
G1 X268.884 Y282.66 E3402.71206
G1 X269.78 Y282.495 E3403.09084
G1 X271.212 Y282.141 E3403.70412
G1 X272.427 Y281.765 E3404.23289
G1 X272.712 Y281.66 E3404.35917
G1 X286.666 Y267.706 E3412.56359
G1 X286.193 Y268.93 E3413.10914
G1 X285.649 Y270.126 E3413.6554
G1 X285.028 Y271.302 E3414.2083
G1 X284.37 Y272.396 E3414.73907
G1 X283.72 Y273.358 E3415.22176
G1 X283.329 Y273.871 E3415.48993
G1 X278.855 Y278.345 E3418.12047
G0 F600 Z2.5
G0 X284.613 Y227.993
;TIME_ELAPSED:2100.051249
;LAYER:-3
;TYPE:SUPPORT-INTERFACE
G1 F300 X283.914 Y226.918 E3418.65358
G1 X283.104 Y225.816 E3419.22218
G1 X282.242 Y224.781 E3419.78218
G1 X281.367 Y223.844 E3420.31519
G1 X280.377 Y222.902 E3420.88333
G1 X279.45 Y222.109 E3421.39051
G1 X278.494 Y221.378 E3421.89085
G1 X277.393 Y220.628 E3422.4447
G1 X276.897 Y220.329 E3422.68549
G1 X284.682 Y228.113 E3427.26248
G1 X285.271 Y229.137 E3427.75361
G1 X285.833 Y230.26 E3428.2757
G1 X286.333 Y231.406 E3428.79552
G1 X286.79 Y232.646 E3429.34495
G1 X286.967 Y233.227 E3429.59747
G1 X271.77 Y218.03 E3438.53272
G1 X271.48 Y217.935 E3438.65959
G1 X270.073 Y217.569 E3439.26402
G1 X268.96 Y217.346 E3439.73595
G1 X268.141 Y217.229 E3440.07991
G1 X287.776 Y236.865 E3451.62483
G1 X287.872 Y237.61 E3451.93712
G1 X287.978 Y239.057 E3452.54033
G1 X287.998 Y239.914 E3452.89673
G1 X265.088 Y217.005 E3466.36663
G1 X262.256 Y217.001 E3467.54404
G1 X288 Y242.745 E3482.68053
G1 X288 Y245.573 E3483.85627
G1 X259.428 Y217.001 E3500.65552
G1 X256.599 Y217.001 E3501.83168
G1 X288 Y248.402 E3520.29426
G1 X288 Y251.23 E3521.47001
G1 X253.771 Y217.001 E3541.59535
G1 X250.942 Y217.001 E3542.77151
G1 X288 Y254.059 E3564.56019
G1 X288 Y256.887 E3565.73594
G1 X248.113 Y217 E3589.18797
G1 X245.285 Y217 E3590.36371
G1 X288 Y259.715 E3615.47849
G1 X287.963 Y261.268 E3616.12434
G1 X287.868 Y262.412 E3616.6016
G1 X242.456 Y217 E3643.30211
G1 X239.628 Y217 E3644.47786
G1 X287.476 Y264.848 E3672.61065
G1 X287.43 Y265.079 E3672.70857
G1 X287.07 Y266.468 E3673.30513
G1 X286.873 Y267.074 E3673.57006
G1 X236.799 Y217 E3703.01165
G1 X235.076 Y217 E3703.72799
G1 X233.995 Y217.025 E3704.17754
G1 X286.102 Y269.131 E3734.81416
G1 X285.649 Y270.126 E3735.26869
G1 X285.173 Y271.03 E3735.69345
G1 X231.426 Y217.284 E3767.29433
G1 X230.22 Y217.505 E3767.80408
G1 X229.097 Y217.783 E3768.28506
G1 X284.104 Y272.79 E3800.62707
G1 X283.72 Y273.358 E3800.91212
G1 X282.908 Y274.423 E3801.46891
G1 X226.952 Y218.466 E3834.36919
G1 X226.427 Y218.66 E3834.60188
G1 X225.218 Y219.186 E3835.15004
G1 X224.969 Y219.312 E3835.26606
G1 X281.581 Y275.924 E3868.55174
G1 X281.167 Y276.356 E3868.80051
G1 X280.137 Y277.309 E3869.38391
G1 X223.135 Y220.306 E3902.8992
G1 X222.969 Y220.401 E3902.97871
G1 X221.94 Y221.071 E3903.48922
G1 X221.44 Y221.44 E3903.74757
G1 X278.56 Y278.56 E3937.33194
G1 X278.086 Y278.91 E3937.57691
G1 X277.017 Y279.608 E3938.1077
G1 X276.866 Y279.694 E3938.17995
G1 X219.862 Y222.691 E3971.69582
G1 X218.842 Y223.635 E3972.27363
G1 X218.418 Y224.075 E3972.52767
G1 X275.032 Y280.689 E4005.81454
G1 X274.843 Y280.785 E4005.90267
G1 X273.561 Y281.345 E4006.48429
G1 X273.049 Y281.535 E4006.71134
G1 X217.09 Y225.576 E4039.61309
G1 X216.294 Y226.621 E4040.15924
G1 X215.897 Y227.211 E4040.45489
G1 X270.903 Y282.217 E4072.79631
G1 X269.78 Y282.495 E4073.27729
G1 X268.574 Y282.716 E4073.78704
G1 X214.828 Y228.97 E4105.38763
G1 X214.353 Y229.873 E4105.81182
G1 X213.901 Y230.871 E4106.26731
G1 X266.005 Y282.976 E4136.90276
G1 X264.924 Y283 E4137.3523
G1 X263.201 Y283 E4138.06864
G1 X213.126 Y232.925 E4167.51082
G92 E0
G1 X212.933 Y233.524 E0.26164
G1 X212.575 Y234.893 E0.84995
G1 X212.524 Y235.151 E0.95929
G1 X260.372 Y283 E29.09237
G1 X257.544 Y283 E30.26812
G1 X212.132 Y237.588 E56.96863
G1 X212.037 Y238.731 E57.44547
G1 X212.001 Y240.021 E57.982
G1 X212.001 Y240.285 E58.09176
G1 X254.715 Y283 E83.20625
G1 X251.887 Y283 E84.382
G1 X212.001 Y243.113 E107.83373
G1 X212.001 Y245.942 E109.00989
G1 X249.058 Y282.999 E130.79799
G1 X246.229 Y282.999 E131.97415
G1 X212.001 Y248.77 E152.09919
G1 X212 Y251.598 E153.27494
G1 X243.401 Y282.999 E171.73752
G1 X240.573 Y282.999 E172.91327
G1 X212 Y254.426 E189.7131
G1 X212 Y257.255 E190.88926
G1 X237.744 Y282.999 E206.02575
G1 X234.912 Y282.995 E207.20316
G1 X212.002 Y260.085 E220.67336
G1 X212.023 Y260.978 E221.04473
G1 X212.126 Y262.367 E221.62379
G1 X212.224 Y263.136 E221.94609
G1 X231.86 Y282.771 E233.49101
G1 X231.04 Y282.655 E233.83532
G1 X229.927 Y282.431 E234.30733
G1 X228.516 Y282.064 E234.91348
G1 X228.231 Y281.971 E235.03812
G1 X213.031 Y266.771 E243.97513
G1 X213.225 Y267.396 E244.24721
G1 X213.672 Y268.604 E244.78272
G1 X214.206 Y269.824 E245.33639
G1 X214.733 Y270.87 E245.82335
G1 X215.314 Y271.883 E246.30886
G1 X223.103 Y279.671 E250.8882
G1 X222.607 Y279.372 E251.12898
G1 X221.515 Y278.629 E251.6781
G1 X220.522 Y277.868 E252.19824
G1 X219.622 Y277.099 E252.6904
G1 X218.625 Y276.15 E253.26266
G1 X217.757 Y275.217 E253.79247
G1 X216.93 Y274.23 E254.32782
G1 X216.067 Y273.053 E254.9346
G1 X215.406 Y272.042 E255.43679
G0 F600 Z3
G0 X214.534 Y229.529
;TIME_ELAPSED:2587.820261
;LAYER:-2
;TYPE:SUPPORT-INTERFACE
G1 F300 X224.529 Y219.534 E261.31347
G1 X224.043 Y219.78 E261.53993
G1 X222.969 Y220.401 E262.05572
G1 X221.94 Y221.071 E262.56622
G1 X220.777 Y221.925 E263.1661
G1 X219.795 Y222.746 E263.69825
G1 X218.842 Y223.635 E264.24009
G1 X218.02 Y224.492 E264.73379
G1 X217.123 Y225.533 E265.3051
G1 X216.294 Y226.621 E265.87378
G1 X215.549 Y227.73 E266.42923
G1 X214.98 Y228.682 E266.89033
G1 X214.353 Y229.873 E267.44992
G1 X213.766 Y231.168 E268.04104
G1 X213.305 Y232.372 E268.57705
G1 X212.933 Y233.524 E269.08034
G1 X212.78 Y234.112 E269.33295
G1 X229.113 Y217.778 E278.93642
G1 X230.22 Y217.505 E279.41044
G1 X231.466 Y217.276 E279.93715
G1 X232.589 Y217.131 E280.40791
G1 X212.133 Y237.587 E292.43526
G1 X212.037 Y238.731 E292.91255
G1 X212.001 Y240.021 E293.44908
G1 X212.001 Y240.547 E293.66776
G1 X235.549 Y217 E307.51279
G1 X238.377 Y217 E308.68854
G1 X212.001 Y243.376 E324.19661
G1 X212.001 Y246.204 E325.37236
G1 X241.205 Y217 E342.54319
G1 X244.034 Y217 E343.71935
G1 X212.001 Y249.032 E362.55324
G1 X212.001 Y251.862 E363.72981
G1 X246.862 Y217 E384.22704
G1 X249.691 Y217 E385.4032
G1 X212.001 Y254.69 E407.56348
G1 X212.001 Y257.518 E408.73922
G1 X252.518 Y217 E432.56196
G1 X255.347 Y217 E433.73812
G1 X212.008 Y260.339 E459.21979
G1 X212.023 Y260.978 E459.48553
G1 X212.126 Y262.367 E460.06459
G1 X212.203 Y262.972 E460.31815
G1 X258.175 Y217 E487.34793
G1 X261.004 Y217 E488.52409
G1 X212.647 Y265.357 E516.95615
G1 X212.844 Y266.166 E517.30232
G1 X213.225 Y267.396 E517.83767
G1 X213.282 Y267.55 E517.90594
G1 X263.832 Y217 E547.6274
G1 X264.98 Y217.001 E548.10469
G1 X266.319 Y217.039 E548.6616
G1 X266.598 Y217.063 E548.77802
G1 X214.094 Y269.567 E579.64836
G1 X214.206 Y269.824 E579.76492
G1 X214.733 Y270.87 E580.25187
G1 X215.057 Y271.433 E580.52193
G1 X269.114 Y217.376 E612.30538
G1 X270.073 Y217.569 E612.71208
G1 X271.403 Y217.915 E613.28343
G1 X216.151 Y273.167 E645.76949
G1 X216.93 Y274.23 E646.3174
G1 X217.38 Y274.766 E646.60837
G1 X273.505 Y218.642 E679.60742
G1 X273.93 Y218.807 E679.79696
G1 X275.126 Y219.352 E680.3434
G1 X275.452 Y219.523 E680.49644
G1 X218.727 Y276.248 E713.84857
G1 X219.622 Y277.099 E714.36202
G1 X220.205 Y277.598 E714.68107
G1 X277.257 Y220.546 E748.22546
G1 X277.393 Y220.628 E748.29148
G1 X278.494 Y221.378 E748.84534
G1 X278.925 Y221.707 E749.07077
G1 X221.805 Y278.827 E782.65514
G1 X222.607 Y279.372 E783.05827
G1 X223.53 Y279.93 E783.50669
G1 X280.47 Y222.99 E816.98522
G1 X281.367 Y223.844 E817.50014
G1 X281.887 Y224.402 E817.81725
G1 X225.402 Y280.887 E851.02826
G1 X226.167 Y281.233 E851.37733
G1 X227.253 Y281.653 E851.86143
G1 X227.411 Y281.706 E851.93071
G1 X283.187 Y225.93 E884.72486
G1 X283.914 Y226.918 E885.23485
G1 X284.352 Y227.593 E885.56938
G1 X229.599 Y282.346 E917.76205
G1 X229.927 Y282.431 E917.90292
G1 X231.04 Y282.655 E918.37493
G1 X231.984 Y282.79 E918.77139
G1 X285.393 Y229.381 E950.17384
G1 X285.833 Y230.26 E950.58251
G1 X286.291 Y231.311 E951.05915
G1 X234.614 Y282.988 E981.44325
G1 X235.02 Y282.999 E981.61211
G1 X237.431 Y283 E982.61448
G1 X287.022 Y233.409 E1011.77209
G1 X287.182 Y233.934 E1012.00027
G1 X287.492 Y235.21 E1012.5462
G1 X287.58 Y235.679 E1012.74459
G1 X240.259 Y283 E1040.56753
G1 X243.088 Y283 E1041.74369
G1 X287.913 Y238.174 E1068.09936
G1 X287.978 Y239.057 E1068.46747
G1 X288 Y240.017 E1068.86669
G1 X287.999 Y240.917 E1069.24087
G1 X245.916 Y283 E1093.98406
G1 X248.745 Y283 E1095.16022
G1 X287.999 Y243.745 E1118.24036
G1 X287.999 Y246.574 E1119.41653
G1 X251.572 Y283 E1140.83391
G1 X254.401 Y283 E1142.01007
G1 X287.999 Y249.402 E1161.76441
G1 X287.999 Y252.231 E1162.94057
G1 X257.229 Y283 E1181.03186
G1 X260.058 Y283 E1182.20802
G1 X287.999 Y255.059 E1198.63626
G1 X287.999 Y257.887 E1199.812
G1 X262.886 Y283 E1214.57748
G1 X264.924 Y283 E1215.42479
G1 X265.732 Y282.983 E1215.76079
G1 X287.978 Y260.737 E1228.84058
G1 X287.963 Y261.268 E1229.06143
G1 X287.857 Y262.54 E1229.5921
G1 X287.689 Y263.749 E1230.09958
G1 X287.664 Y263.88 E1230.15502
G1 X268.884 Y282.66 E1241.19694
G1 X269.78 Y282.495 E1241.57572
G1 X271.212 Y282.141 E1242.189
G1 X272.427 Y281.765 E1242.71777
G1 X272.712 Y281.66 E1242.84405
G1 X286.666 Y267.706 E1251.04846
G1 X286.193 Y268.93 E1251.59402
G1 X285.649 Y270.126 E1252.14028
G1 X285.028 Y271.302 E1252.69318
G1 X284.37 Y272.396 E1253.22395
G1 X283.72 Y273.358 E1253.70664
G1 X283.329 Y273.871 E1253.97481
G1 X278.855 Y278.345 E1256.60535
G0 F600 Z3.8
G0 X258 Y253
;TIME_ELAPSED:3072.894983
;LAYER:0
;TYPE:WALL-INNER
;MESH:30_20_10_cube.STL
G1 X258 Y247 E1259.09986
G1 X242 Y247 E1265.75189
G1 X242 Y253 E1268.2464
G1 X258 Y253 E1274.89842
G0 X260 Y255
G1 X260 Y245 E1279.05594
G1 X240 Y245 E1287.37097
G1 X240 Y255 E1291.52849
G1 X260 Y255 E1299.84352
G0 X260.92 Y255.92
G0 X262 Y257
G1 X262 Y243 E1305.66405
G1 X238 Y243 E1315.64209
G1 X238 Y257 E1321.46261
G1 X262 Y257 E1331.44065
G1 F2400 E1316.44065
G0 F600 X260.89 Y255.92
G0 X262.92 Y257.92
G0 X264 Y259
;TYPE:WALL-OUTER
G1 F900 E1334.44238
G1 F600 X264 Y241 E1341.92591
G1 X236 Y241 E1353.56696
G1 X236 Y259 E1361.05049
G1 X264 Y259 E1372.69153
G0 X264 Y258
G1 F2400 E1357.69153
G0 F600 X262.92 Y257.92
G0 X256.05 Y251.05
;TYPE:SKIN
G1 F900 E1375.69326
G1 F571.4 X243.95 Y251.05 E1380.97539
G1 X243.95 Y248.95 E1381.89212
G1 X256.05 Y248.95 E1387.17425
G1 X256.05 Y251.05 E1388.09098
;MESH:NONMESH
G0 F600 Z4.15
G0 X242.999 Y248.656
;TIME_ELAPSED:3110.031573
;LAYER:1
;TYPE:FILL
;MESH:30_20_10_cube.STL
G1 X246.343 Y251.999 E1390.05683
G0 X249.171 Y251.999
G1 X245.172 Y248 E1392.40809
G0 X248 Y248
G1 X251.999 Y251.999 E1394.75934
G0 X254.828 Y251.999
G1 X250.828 Y248 E1397.1109
G0 X253.657 Y248
G1 X257 Y251.343 E1399.07645
G0 X257 Y248.515
G1 X256.485 Y248 E1399.37925
G0 X243.514 Y251.999
G1 X242.999 Y251.485 E1399.68176
G0 X258 Y253
;TYPE:WALL-INNER
G1 X258 Y247 E1402.17627
G1 X242 Y247 E1408.8283
G1 X242 Y253 E1411.32281
G1 X258 Y253 E1417.97483
G0 X260 Y255
G1 X260 Y245 E1422.13235
G1 X240 Y245 E1430.44739
G1 X240 Y255 E1434.6049
G1 X260 Y255 E1442.91994
G0 X260.92 Y255.92
G0 X262 Y257
G1 X262 Y243 E1448.74046
G1 X238 Y243 E1458.7185
G1 X238 Y257 E1464.53902
G1 X262 Y257 E1474.51706
G1 F2400 E1459.51706
G0 F600 X260.89 Y255.92
G0 X262.92 Y257.92
G0 X264 Y259
;TYPE:WALL-OUTER
G1 F900 E1477.51879
G1 F600 X264 Y241 E1485.00232
G1 X236 Y241 E1496.64337
G1 X236 Y259 E1504.1269
G1 X264 Y259 E1515.76795
G0 X264 Y258
G1 F2400 E1500.76795
;MESH:NONMESH
G0 F600 Z4.65
G0 X262.92 Y257.92
G0 X242.999 Y248.656
;TIME_ELAPSED:3149.970549
;LAYER:2
;TYPE:FILL
;MESH:30_20_10_cube.STL
G1 F900 E1518.76967
G1 F600 X246.343 Y251.999 E1520.73552
G0 X249.171 Y251.999
G1 X245.172 Y248 E1523.08678
G0 X248 Y248
G1 X251.999 Y251.999 E1525.43804
G0 X254.828 Y251.999
G1 X250.828 Y248 E1527.78959
G0 X253.657 Y248
G1 X257 Y251.343 E1529.75515
G0 X257 Y248.515
G1 X256.485 Y248 E1530.05795
G0 X243.514 Y251.999
G1 X242.999 Y251.485 E1530.36046
G0 X258 Y253
;TYPE:WALL-INNER
G1 X258 Y247 E1532.85497
G1 X242 Y247 E1539.50699
G1 X242 Y253 E1542.0015
G1 X258 Y253 E1548.65353
G0 X260 Y255
G1 X260 Y245 E1552.81105
G1 X240 Y245 E1561.12608
G1 X240 Y255 E1565.2836
G1 X260 Y255 E1573.59863
G0 X260.92 Y255.92
G0 X262 Y257
G1 X262 Y243 E1579.41916
G1 X238 Y243 E1589.3972
G1 X238 Y257 E1595.21772
G1 X262 Y257 E1605.19576
G1 F2400 E1590.19576
G0 F600 X260.89 Y255.92
G0 X262.92 Y257.92
G0 X264 Y259
;TYPE:WALL-OUTER
G1 F900 E1608.19749
G1 F600 X264 Y241 E1615.68102
G1 X236 Y241 E1627.32207
G1 X236 Y259 E1634.8056
G1 X264 Y259 E1646.44664
G0 X264 Y258
G1 F2400 E1631.44664
;MESH:NONMESH
G0 F600 Z5.15
G0 X262.92 Y257.92
G0 X242.999 Y248.656
;TIME_ELAPSED:3191.111502
;LAYER:3
;TYPE:FILL
;MESH:30_20_10_cube.STL
G1 F900 E1649.44837
G1 F600 X246.343 Y251.999 E1651.41422
G0 X249.171 Y251.999
G1 X245.172 Y248 E1653.76548
G0 X248 Y248
G1 X251.999 Y251.999 E1656.11674
G0 X254.828 Y251.999
G1 X250.828 Y248 E1658.46829
G0 X253.657 Y248
G1 X257 Y251.343 E1660.43385
G0 X257 Y248.515
G1 X256.485 Y248 E1660.73665
G0 X243.514 Y251.999
G1 X242.999 Y251.485 E1661.03915
G0 X258 Y253
;TYPE:WALL-INNER
G1 X258 Y247 E1663.53366
G1 X242 Y247 E1670.18569
G1 X242 Y253 E1672.6802
G1 X258 Y253 E1679.33223
G0 X260 Y255
G1 X260 Y245 E1683.48974
G1 X240 Y245 E1691.80478
G1 X240 Y255 E1695.96229
G1 X260 Y255 E1704.27733
G0 X260.92 Y255.92
G0 X262 Y257
G1 X262 Y243 E1710.09785
G1 X238 Y243 E1720.07589
G1 X238 Y257 E1725.89642
G1 X262 Y257 E1735.87446
G1 F2400 E1720.87446
G0 F600 X260.89 Y255.92
G0 X262.92 Y257.92
G0 X264 Y259
;TYPE:WALL-OUTER
G1 F900 E1738.87618
G1 F600 X264 Y241 E1746.35971
G1 X236 Y241 E1758.00076
G1 X236 Y259 E1765.48429
G1 X264 Y259 E1777.12534
G0 X264 Y258
G1 F2400 E1762.12534
;MESH:NONMESH
G0 F600 Z5.65
G0 X262.92 Y257.92
G0 X242.999 Y248.656
;TIME_ELAPSED:3232.252455
;LAYER:4
;TYPE:FILL
;MESH:30_20_10_cube.STL
G1 F900 E1780.12707
G1 F600 X246.343 Y251.999 E1782.09292
G0 X249.171 Y251.999
G1 X245.172 Y248 E1784.44417
G0 X248 Y248
G1 X251.999 Y251.999 E1786.79543
G0 X254.828 Y251.999
G1 X250.828 Y248 E1789.14699
G0 X253.657 Y248
G1 X257 Y251.343 E1791.11254
G0 X257 Y248.515
G1 X256.485 Y248 E1791.41534
G0 X243.514 Y251.999
G1 X242.999 Y251.485 E1791.71785
G0 X258 Y253
;TYPE:WALL-INNER
G1 X258 Y247 E1794.21236
G1 X242 Y247 E1800.86439
G1 X242 Y253 E1803.3589
G1 X258 Y253 E1810.01092
G0 X260 Y255
G1 X260 Y245 E1814.16844
G1 X240 Y245 E1822.48347
G1 X240 Y255 E1826.64099
G1 X260 Y255 E1834.95602
G0 X260.92 Y255.92
G0 X262 Y257
G1 X262 Y243 E1840.77655
G1 X238 Y243 E1850.75459
G1 X238 Y257 E1856.57511
G1 X262 Y257 E1866.55315
G1 F2400 E1851.55315
G0 F600 X260.89 Y255.92
G0 X262.92 Y257.92
G0 X264 Y259
;TYPE:WALL-OUTER
G1 F900 E1869.55488
G1 F600 X264 Y241 E1877.03841
G1 X236 Y241 E1888.67946
G1 X236 Y259 E1896.16299
G1 X264 Y259 E1907.80404
G0 X264 Y258
G1 F2400 E1892.80404
;MESH:NONMESH
G0 F600 Z6.15
G0 X262.92 Y257.92
G0 X242.999 Y248.656
;TIME_ELAPSED:3273.393408
;LAYER:5
;TYPE:FILL
;MESH:30_20_10_cube.STL
G1 F900 E1910.80576
G1 F600 X246.343 Y251.999 E1912.77161
G0 X249.171 Y251.999
G1 X245.172 Y248 E1915.12287
G0 X248 Y248
G1 X251.999 Y251.999 E1917.47413
G0 X254.828 Y251.999
G1 X250.828 Y248 E1919.82568
G0 X253.657 Y248
G1 X257 Y251.343 E1921.79124
G0 X257 Y248.515
G1 X256.485 Y248 E1922.09404
G0 X243.514 Y251.999
G1 X242.999 Y251.485 E1922.39655
G0 X258 Y253
;TYPE:WALL-INNER
G1 X258 Y247 E1924.89106
G1 X242 Y247 E1931.54308
G1 X242 Y253 E1934.03759
G1 X258 Y253 E1940.68962
G0 X260 Y255
G1 X260 Y245 E1944.84714
G1 X240 Y245 E1953.16217
G1 X240 Y255 E1957.31969
G1 X260 Y255 E1965.63472
G0 X260.92 Y255.92
G0 X262 Y257
G1 X262 Y243 E1971.45524
G1 X238 Y243 E1981.43328
G1 X238 Y257 E1987.25381
G1 X262 Y257 E1997.23185
G1 F2400 E1982.23185
G0 F600 X260.89 Y255.92
G0 X262.92 Y257.92
G0 X264 Y259
;TYPE:WALL-OUTER
G1 F900 E2000.23358
G1 F600 X264 Y241 E2007.71711
G1 X236 Y241 E2019.35815
G1 X236 Y259 E2026.84168
G1 X264 Y259 E2038.48273
G0 X264 Y258
G1 F2400 E2023.48273
;MESH:NONMESH
G0 F600 Z6.65
G0 X262.92 Y257.92
G0 X242.999 Y248.656
;TIME_ELAPSED:3314.534361
;LAYER:6
;TYPE:FILL
;MESH:30_20_10_cube.STL
G1 F900 E2041.48446
G1 F600 X246.343 Y251.999 E2043.45031
G0 X249.171 Y251.999
G1 X245.172 Y248 E2045.80157
G0 X248 Y248
G1 X251.999 Y251.999 E2048.15283
G0 X254.828 Y251.999
G1 X250.828 Y248 E2050.50438
G0 X253.657 Y248
G1 X257 Y251.343 E2052.46993
G0 X257 Y248.515
G1 X256.485 Y248 E2052.77273
G0 X243.514 Y251.999
G1 X242.999 Y251.485 E2053.07524
G0 X258 Y253
;TYPE:WALL-INNER
G1 X258 Y247 E2055.56975
G1 X242 Y247 E2062.22178
G1 X242 Y253 E2064.71629
G1 X258 Y253 E2071.36832
G0 X260 Y255
G1 X260 Y245 E2075.52583
G1 X240 Y245 E2083.84087
G1 X240 Y255 E2087.99838
G1 X260 Y255 E2096.31342
G0 X260.92 Y255.92
G0 X262 Y257
G1 X262 Y243 E2102.13394
G1 X238 Y243 E2112.11198
G1 X238 Y257 E2117.9325
G1 X262 Y257 E2127.91055
G1 F2400 E2112.91055
G0 F600 X260.89 Y255.92
G0 X262.92 Y257.92
G0 X264 Y259
;TYPE:WALL-OUTER
G1 F900 E2130.91227
G1 F600 X264 Y241 E2138.3958
G1 X236 Y241 E2150.03685
G1 X236 Y259 E2157.52038
G1 X264 Y259 E2169.16143
G0 X264 Y258
G1 F2400 E2154.16143
;MESH:NONMESH
G0 F600 Z7.15
G0 X262.92 Y257.92
G0 X242.999 Y248.656
;TIME_ELAPSED:3355.675314
;LAYER:7
;TYPE:FILL
;MESH:30_20_10_cube.STL
G1 F900 E2172.16315
G1 F600 X246.343 Y251.999 E2174.129
G0 X249.171 Y251.999
G1 X245.172 Y248 E2176.48026
G0 X248 Y248
G1 X251.999 Y251.999 E2178.83152
G0 X254.828 Y251.999
G1 X250.828 Y248 E2181.18307
G0 X253.657 Y248
G1 X257 Y251.343 E2183.14863
G0 X257 Y248.515
G1 X256.485 Y248 E2183.45143
G0 X243.514 Y251.999
G1 X242.999 Y251.485 E2183.75394
G0 X258 Y253
;TYPE:WALL-INNER
G1 X258 Y247 E2186.24845
G1 X242 Y247 E2192.90047
G1 X242 Y253 E2195.39498
G1 X258 Y253 E2202.04701
G0 X260 Y255
G1 X260 Y245 E2206.20453
G1 X240 Y245 E2214.51956
G1 X240 Y255 E2218.67708
G1 X260 Y255 E2226.99211
G0 X260.92 Y255.92
G0 X262 Y257
G1 X262 Y243 E2232.81264
G1 X238 Y243 E2242.79068
G1 X238 Y257 E2248.6112
G1 X262 Y257 E2258.58924
G1 F2400 E2243.58924
G0 F600 X260.89 Y255.92
G0 X262.92 Y257.92
G0 X264 Y259
;TYPE:WALL-OUTER
G1 F900 E2261.59097
G1 F600 X264 Y241 E2269.0745
G1 X236 Y241 E2280.71555
G1 X236 Y259 E2288.19908
G1 X264 Y259 E2299.84012
G0 X264 Y258
G1 F2400 E2284.84012
;MESH:NONMESH
G0 F600 Z7.65
G0 X262.92 Y257.92
G0 X242.999 Y248.656
;TIME_ELAPSED:3396.816267
;LAYER:8
;TYPE:FILL
;MESH:30_20_10_cube.STL
G1 F900 E2302.84185
G1 F600 X246.343 Y251.999 E2304.8077
G0 X249.171 Y251.999
G1 X245.172 Y248 E2307.15896
G0 X248 Y248
G1 X251.999 Y251.999 E2309.51022
G0 X254.828 Y251.999
G1 X250.828 Y248 E2311.86177
G0 X253.657 Y248
G1 X257 Y251.343 E2313.82733
G0 X257 Y248.515
G1 X256.485 Y248 E2314.13013
G0 X243.514 Y251.999
G1 X242.999 Y251.485 E2314.43263
G0 X258 Y253
;TYPE:WALL-INNER
G1 X258 Y247 E2316.92714
G1 X242 Y247 E2323.57917
G1 X242 Y253 E2326.07368
G1 X258 Y253 E2332.72571
G0 X260 Y255
G1 X260 Y245 E2336.88322
G1 X240 Y245 E2345.19826
G1 X240 Y255 E2349.35578
G1 X260 Y255 E2357.67081
G0 X260.92 Y255.92
G0 X262 Y257
G1 X262 Y243 E2363.49133
G1 X238 Y243 E2373.46937
G1 X238 Y257 E2379.2899
G1 X262 Y257 E2389.26794
G1 F2400 E2374.26794
G0 F600 X260.89 Y255.92
G0 X262.92 Y257.92
G0 X264 Y259
;TYPE:WALL-OUTER
G1 F900 E2392.26966
G1 F600 X264 Y241 E2399.7532
G1 X236 Y241 E2411.39424
G1 X236 Y259 E2418.87777
G1 X264 Y259 E2430.51882
G0 X264 Y258
G1 F2400 E2415.51882
;MESH:NONMESH
G0 F600 Z8.15
G0 X262.92 Y257.92
G0 X242.999 Y248.656
;TIME_ELAPSED:3437.957220
;LAYER:9
;TYPE:FILL
;MESH:30_20_10_cube.STL
G1 F900 E2433.52055
G1 F600 X246.343 Y251.999 E2435.4864
G0 X249.171 Y251.999
G1 X245.172 Y248 E2437.83766
G0 X248 Y248
G1 X251.999 Y251.999 E2440.18891
G0 X254.828 Y251.999
G1 X250.828 Y248 E2442.54047
G0 X253.657 Y248
G1 X257 Y251.343 E2444.50602
G0 X257 Y248.515
G1 X256.485 Y248 E2444.80882
G0 X243.514 Y251.999
G1 X242.999 Y251.485 E2445.11133
G0 X258 Y253
;TYPE:WALL-INNER
G1 X258 Y247 E2447.60584
G1 X242 Y247 E2454.25787
G1 X242 Y253 E2456.75238
G1 X258 Y253 E2463.4044
G0 X260 Y255
G1 X260 Y245 E2467.56192
G1 X240 Y245 E2475.87695
G1 X240 Y255 E2480.03447
G1 X260 Y255 E2488.34951
G0 X260.92 Y255.92
G0 X262 Y257
G1 X262 Y243 E2494.17003
G1 X238 Y243 E2504.14807
G1 X238 Y257 E2509.96859
G1 X262 Y257 E2519.94663
G1 F2400 E2504.94663
G0 F600 X260.89 Y255.92
G0 X262.92 Y257.92
G0 X264 Y259
;TYPE:WALL-OUTER
G1 F900 E2522.94836
G1 F600 X264 Y241 E2530.43189
G1 X236 Y241 E2542.07294
G1 X236 Y259 E2549.55647
G1 X264 Y259 E2561.19752
G0 X264 Y258
G1 F2400 E2546.19752
;MESH:NONMESH
G0 F600 Z8.65
G0 X262.92 Y257.92
G0 X242.999 Y248.656
;TIME_ELAPSED:3479.098173
;LAYER:10
;TYPE:FILL
;MESH:30_20_10_cube.STL
G1 F900 E2564.19924
G1 F600 X246.343 Y251.999 E2566.16509
G0 X249.171 Y251.999
G1 X245.172 Y248 E2568.51635
G0 X248 Y248
G1 X251.999 Y251.999 E2570.86761
G0 X254.828 Y251.999
G1 X250.828 Y248 E2573.21916
G0 X253.657 Y248
G1 X257 Y251.343 E2575.18472
G0 X257 Y248.515
G1 X256.485 Y248 E2575.48752
G0 X243.514 Y251.999
G1 X242.999 Y251.485 E2575.79003
G0 X258 Y253
;TYPE:WALL-INNER
G1 X258 Y247 E2578.28454
G1 X242 Y247 E2584.93656
G1 X242 Y253 E2587.43107
G1 X258 Y253 E2594.0831
G0 X260 Y255
G1 X260 Y245 E2598.24062
G1 X240 Y245 E2606.55565
G1 X240 Y255 E2610.71317
G1 X260 Y255 E2619.0282
G0 X260.92 Y255.92
G0 X262 Y257
G1 X262 Y243 E2624.84873
G1 X238 Y243 E2634.82677
G1 X238 Y257 E2640.64729
G1 X262 Y257 E2650.62533
G1 F2400 E2635.62533
G0 F600 X260.89 Y255.92
G0 X262.92 Y257.92
G0 X264 Y259
;TYPE:WALL-OUTER
G1 F900 E2653.62706
G1 F600 X264 Y241 E2661.11059
G1 X236 Y241 E2672.75163
G1 X236 Y259 E2680.23517
G1 X264 Y259 E2691.87621
G0 X264 Y258
G1 F2400 E2676.87621
;MESH:NONMESH
G0 F600 Z9.15
G0 X262.92 Y257.92
G0 X242.999 Y248.656
;TIME_ELAPSED:3520.239126
;LAYER:11
;TYPE:FILL
;MESH:30_20_10_cube.STL
G1 F900 E2694.87794
G1 F600 X246.343 Y251.999 E2696.84379
G0 X249.171 Y251.999
G1 X245.172 Y248 E2699.19505
G0 X248 Y248
G1 X251.999 Y251.999 E2701.54631
G0 X254.828 Y251.999
G1 X250.828 Y248 E2703.89786
G0 X253.657 Y248
G1 X257 Y251.343 E2705.86342
G0 X257 Y248.515
G1 X256.485 Y248 E2706.16622
G0 X243.514 Y251.999
G1 X242.999 Y251.485 E2706.46872
G0 X258 Y253
;TYPE:WALL-INNER
G1 X258 Y247 E2708.96323
G1 X242 Y247 E2715.61526
G1 X242 Y253 E2718.10977
G1 X258 Y253 E2724.7618
G0 X260 Y255
G1 X260 Y245 E2728.91931
G1 X240 Y245 E2737.23435
G1 X240 Y255 E2741.39186
G1 X260 Y255 E2749.7069
G0 X260.92 Y255.92
G0 X262 Y257
G1 X262 Y243 E2755.52742
G1 X238 Y243 E2765.50546
G1 X238 Y257 E2771.32599
G1 X262 Y257 E2781.30403
G1 F2400 E2766.30403
G0 F600 X260.89 Y255.92
G0 X262.92 Y257.92
G0 X264 Y259
;TYPE:WALL-OUTER
G1 F900 E2784.30575
G1 F600 X264 Y241 E2791.78928
G1 X236 Y241 E2803.43033
G1 X236 Y259 E2810.91386
G1 X264 Y259 E2822.55491
G0 X264 Y258
G1 F2400 E2807.55491
;MESH:NONMESH
G0 F600 Z9.65
G0 X262.92 Y257.92
G0 X242.999 Y248.656
;TIME_ELAPSED:3561.380079
;LAYER:12
;TYPE:FILL
;MESH:30_20_10_cube.STL
G1 F900 E2825.55664
G1 F600 X246.343 Y251.999 E2827.52249
G0 X249.171 Y251.999
G1 X245.172 Y248 E2829.87374
G0 X248 Y248
G1 X251.999 Y251.999 E2832.225
G0 X254.828 Y251.999
G1 X250.828 Y248 E2834.57656
G0 X253.657 Y248
G1 X257 Y251.343 E2836.54211
G0 X257 Y248.515
G1 X256.485 Y248 E2836.84491
G0 X243.514 Y251.999
G1 X242.999 Y251.485 E2837.14742
G0 X258 Y253
;TYPE:WALL-INNER
G1 X258 Y247 E2839.64193
G1 X242 Y247 E2846.29396
G1 X242 Y253 E2848.78847
G1 X258 Y253 E2855.44049
G0 X260 Y255
G1 X260 Y245 E2859.59801
G1 X240 Y245 E2867.91304
G1 X240 Y255 E2872.07056
G1 X260 Y255 E2880.38559
G0 X260.92 Y255.92
G0 X262 Y257
G1 X262 Y243 E2886.20612
G1 X238 Y243 E2896.18416
G1 X238 Y257 E2902.00468
G1 X262 Y257 E2911.98272
G1 F2400 E2896.98272
G0 F600 X260.89 Y255.92
G0 X262.92 Y257.92
G0 X264 Y259
;TYPE:WALL-OUTER
G1 F900 E2914.98445
G1 F600 X264 Y241 E2922.46798
G1 X236 Y241 E2934.10903
G1 X236 Y259 E2941.59256
G1 X264 Y259 E2953.2336
G0 X264 Y258
G1 F2400 E2938.2336
;MESH:NONMESH
G0 F600 Z10.15
G0 X262.92 Y257.92
G0 X242.999 Y248.656
;TIME_ELAPSED:3602.521032
;LAYER:13
;TYPE:FILL
;MESH:30_20_10_cube.STL
G1 F900 E2956.23533
G1 F600 X246.343 Y251.999 E2958.20118
G0 X249.171 Y251.999
G1 X245.172 Y248 E2960.55244
G0 X248 Y248
G1 X251.999 Y251.999 E2962.9037
G0 X254.828 Y251.999
G1 X250.828 Y248 E2965.25525
G0 X253.657 Y248
G1 X257 Y251.343 E2967.22081
G0 X257 Y248.515
G1 X256.485 Y248 E2967.52361
G0 X243.514 Y251.999
G1 X242.999 Y251.485 E2967.82611
G0 X258 Y253
;TYPE:WALL-INNER
G1 X258 Y247 E2970.32062
G1 X242 Y247 E2976.97265
G1 X242 Y253 E2979.46716
G1 X258 Y253 E2986.11919
G0 X260 Y255
G1 X260 Y245 E2990.27671
G1 X240 Y245 E2998.59174
G1 X240 Y255 E3002.74926
G1 X260 Y255 E3011.06429
G0 X260.92 Y255.92
G0 X262 Y257
G1 X262 Y243 E3016.88481
G1 X238 Y243 E3026.86285
G1 X238 Y257 E3032.68338
G1 X262 Y257 E3042.66142
G1 F2400 E3027.66142
G0 F600 X260.89 Y255.92
G0 X262.92 Y257.92
G0 X264 Y259
;TYPE:WALL-OUTER
G1 F900 E3045.66315
G1 F600 X264 Y241 E3053.14668
G1 X236 Y241 E3064.78772
G1 X236 Y259 E3072.27125
G1 X264 Y259 E3083.9123
G0 X264 Y258
G1 F2400 E3068.9123
;MESH:NONMESH
G0 F600 Z10.65
G0 X262.92 Y257.92
G0 X242.999 Y248.656
;TIME_ELAPSED:3643.661985
;LAYER:14
;TYPE:FILL
;MESH:30_20_10_cube.STL
G1 F900 E3086.91403
G1 F600 X246.343 Y251.999 E3088.87988
G0 X249.171 Y251.999
G1 X245.172 Y248 E3091.23114
G0 X248 Y248
G1 X251.999 Y251.999 E3093.5824
G0 X254.828 Y251.999
G1 X250.828 Y248 E3095.93395
G0 X253.657 Y248
G1 X257 Y251.343 E3097.8995
G0 X257 Y248.515
G1 X256.485 Y248 E3098.2023
G0 X243.514 Y251.999
G1 X242.999 Y251.485 E3098.50481
G0 X258 Y253
;TYPE:WALL-INNER
G1 X258 Y247 E3100.99932
G1 X242 Y247 E3107.65135
G1 X242 Y253 E3110.14586
G1 X258 Y253 E3116.79789
G0 X260 Y255
G1 X260 Y245 E3120.9554
G1 X240 Y245 E3129.27044
G1 X240 Y255 E3133.42795
G1 X260 Y255 E3141.74299
G0 X260.92 Y255.92
G0 X262 Y257
G1 X262 Y243 E3147.56351
G1 X238 Y243 E3157.54155
G1 X238 Y257 E3163.36207
G1 X262 Y257 E3173.34011
G1 F2400 E3158.34011
G0 F600 X260.89 Y255.92
G0 X262.92 Y257.92
G0 X264 Y259
;TYPE:WALL-OUTER
G1 F900 E3176.34184
G1 F600 X264 Y241 E3183.82537
G1 X236 Y241 E3195.46642
G1 X236 Y259 E3202.94995
G1 X264 Y259 E3214.591
G0 X264 Y258
G1 F2400 E3199.591
;MESH:NONMESH
G0 F600 Z11.15
G0 X262.92 Y257.92
G0 X242.999 Y248.656
;TIME_ELAPSED:3684.802938
;LAYER:15
;TYPE:FILL
;MESH:30_20_10_cube.STL
G1 F900 E3217.59272
G1 F600 X246.343 Y251.999 E3219.55857
G0 X249.171 Y251.999
G1 X245.172 Y248 E3221.90983
G0 X248 Y248
G1 X251.999 Y251.999 E3224.26109
G0 X254.828 Y251.999
G1 X250.828 Y248 E3226.61264
G0 X253.657 Y248
G1 X257 Y251.343 E3228.5782
G0 X257 Y248.515
G1 X256.485 Y248 E3228.881
G0 X243.514 Y251.999
G1 X242.999 Y251.485 E3229.18351
G0 X258 Y253
;TYPE:WALL-INNER
G1 X258 Y247 E3231.67802
G1 X242 Y247 E3238.33004
G1 X242 Y253 E3240.82455
G1 X258 Y253 E3247.47658
G0 X260 Y255
G1 X260 Y245 E3251.6341
G1 X240 Y245 E3259.94913
G1 X240 Y255 E3264.10665
G1 X260 Y255 E3272.42168
G0 X260.92 Y255.92
G0 X262 Y257
G1 X262 Y243 E3278.24221
G1 X238 Y243 E3288.22025
G1 X238 Y257 E3294.04077
G1 X262 Y257 E3304.01881
G1 F2400 E3289.01881
G0 F600 X260.89 Y255.92
G0 X262.92 Y257.92
G0 X264 Y259
;TYPE:WALL-OUTER
G1 F900 E3307.02054
G1 F600 X264 Y241 E3314.50407
G1 X236 Y241 E3326.14512
G1 X236 Y259 E3333.62865
G1 X264 Y259 E3345.26969
G0 X264 Y258
G1 F2400 E3330.26969
;MESH:NONMESH
G0 F600 Z11.65
G0 X262.92 Y257.92
G0 X242.999 Y248.656
;TIME_ELAPSED:3725.943891
;LAYER:16
;TYPE:FILL
;MESH:30_20_10_cube.STL
G1 F900 E3348.27142
G1 F600 X246.343 Y251.999 E3350.23727
G0 X249.171 Y251.999
G1 X245.172 Y248 E3352.58853
G0 X248 Y248
G1 X251.999 Y251.999 E3354.93979
G0 X254.828 Y251.999
G1 X250.828 Y248 E3357.29134
G0 X253.657 Y248
G1 X257 Y251.343 E3359.2569
G0 X257 Y248.515
G1 X256.485 Y248 E3359.5597
G0 X243.514 Y251.999
G1 X242.999 Y251.485 E3359.8622
G0 X258 Y253
;TYPE:WALL-INNER
G1 X258 Y247 E3362.35671
G1 X242 Y247 E3369.00874
G1 X242 Y253 E3371.50325
G1 X258 Y253 E3378.15528
G0 X260 Y255
G1 X260 Y245 E3382.31279
G1 X240 Y245 E3390.62783
G1 X240 Y255 E3394.78535
G1 X260 Y255 E3403.10038
G0 X260.92 Y255.92
G0 X262 Y257
G1 X262 Y243 E3408.9209
G1 X238 Y243 E3418.89894
G1 X238 Y257 E3424.71947
G1 X262 Y257 E3434.69751
G1 F2400 E3419.69751
G0 F600 X260.89 Y255.92
G0 X262.92 Y257.92
G0 X264 Y259
;TYPE:WALL-OUTER
G1 F900 E3437.69923
G1 F600 X264 Y241 E3445.18276
G1 X236 Y241 E3456.82381
G1 X236 Y259 E3464.30734
G1 X264 Y259 E3475.94839
G0 X264 Y258
G1 F2400 E3460.94839
;MESH:NONMESH
G0 F600 Z12.15
G0 X262.92 Y257.92
G0 X242.999 Y248.656
;TIME_ELAPSED:3767.084844
;LAYER:17
;TYPE:FILL
;MESH:30_20_10_cube.STL
G1 F900 E3478.95012
G1 F600 X246.343 Y251.999 E3480.91597
G0 X249.171 Y251.999
G1 X245.172 Y248 E3483.26723
G0 X248 Y248
G1 X251.999 Y251.999 E3485.61848
G0 X254.828 Y251.999
G1 X250.828 Y248 E3487.97004
G0 X253.657 Y248
G1 X257 Y251.343 E3489.93559
G0 X257 Y248.515
G1 X256.485 Y248 E3490.23839
G0 X243.514 Y251.999
G1 X242.999 Y251.485 E3490.5409
G0 X258 Y253
;TYPE:WALL-INNER
G1 X258 Y247 E3493.03541
G1 X242 Y247 E3499.68744
G1 X242 Y253 E3502.18195
G1 X258 Y253 E3508.83397
G0 X260 Y255
G1 X260 Y245 E3512.99149
G1 X240 Y245 E3521.30652
G1 X240 Y255 E3525.46404
G1 X260 Y255 E3533.77908
G0 X260.92 Y255.92
G0 X262 Y257
G1 X262 Y243 E3539.5996
G1 X238 Y243 E3549.57764
G1 X238 Y257 E3555.39816
G1 X262 Y257 E3565.3762
G1 F2400 E3550.3762
G0 F600 X260.89 Y255.92
G0 X262.92 Y257.92
G0 X264 Y259
;TYPE:WALL-OUTER
G1 F900 E3568.37793
G1 F600 X264 Y241 E3575.86146
G1 X236 Y241 E3587.50251
G1 X236 Y259 E3594.98604
G1 X264 Y259 E3606.62709
G0 X264 Y258
G1 F2400 E3591.62709
;MESH:NONMESH
G0 F600 Z12.65
G0 X262.92 Y257.92
G0 X242.999 Y248.656
;TIME_ELAPSED:3808.225797
;LAYER:18
;TYPE:FILL
;MESH:30_20_10_cube.STL
G1 F900 E3609.62881
G1 F600 X246.343 Y251.999 E3611.59466
G0 X249.171 Y251.999
G1 X245.172 Y248 E3613.94592
G0 X248 Y248
G1 X251.999 Y251.999 E3616.29718
G0 X254.828 Y251.999
G1 X250.828 Y248 E3618.64873
G0 X253.657 Y248
G1 X257 Y251.343 E3620.61429
G0 X257 Y248.515
G1 X256.485 Y248 E3620.91709
G0 X243.514 Y251.999
G1 X242.999 Y251.485 E3621.2196
G0 X258 Y253
;TYPE:WALL-INNER
G1 X258 Y247 E3623.71411
G1 X242 Y247 E3630.36613
G1 X242 Y253 E3632.86064
G1 X258 Y253 E3639.51267
G0 X260 Y255
G1 X260 Y245 E3643.67019
G1 X240 Y245 E3651.98522
G1 X240 Y255 E3656.14274
G1 X260 Y255 E3664.45777
G0 X260.92 Y255.92
G0 X262 Y257
G1 X262 Y243 E3670.27829
G1 X238 Y243 E3680.25634
G1 X238 Y257 E3686.07686
G1 X262 Y257 E3696.0549
G1 F2400 E3681.0549
G0 F600 X260.89 Y255.92
G0 X262.92 Y257.92
G0 X264 Y259
;TYPE:WALL-OUTER
G1 F900 E3699.05663
G1 F600 X264 Y241 E3706.54016
G1 X236 Y241 E3718.1812
G1 X236 Y259 E3725.66473
G1 X264 Y259 E3737.30578
G0 X264 Y258
G1 F2400 E3722.30578
;MESH:NONMESH
G0 F600 Z13.15
G0 X262.92 Y257.92
G0 X258 Y253
;TIME_ELAPSED:3847.865572
;LAYER:19
;TYPE:WALL-INNER
;MESH:30_20_10_cube.STL
G1 F900 E3740.30751
G1 F600 X258 Y247 E3742.80202
G1 X242 Y247 E3749.45405
G1 X242 Y253 E3751.94856
G1 X258 Y253 E3758.60058
G0 X260 Y255
G1 X260 Y245 E3762.7581
G1 X240 Y245 E3771.07313
G1 X240 Y255 E3775.23065
G1 X260 Y255 E3783.54568
G0 X260.92 Y255.92
G0 X262 Y257
G1 X262 Y243 E3789.36621
G1 X238 Y243 E3799.34425
G1 X238 Y257 E3805.16477
G1 X262 Y257 E3815.14281
G1 F2400 E3800.14281
G0 F600 X260.89 Y255.92
G0 X262.92 Y257.92
G1 F900 E3818.14454
G0 F600 X264 Y259
G0 E3803.14454
;TYPE:WALL-OUTER
G1 F900 E3818.14454
G1 F600 X264 Y241 E3825.62807
G1 X236 Y241 E3837.26912
G1 X236 Y259 E3844.75265
G1 X264 Y259 E3856.3937
G0 X264 Y258
G1 F2400 E3841.3937
G0 F600 X262.92 Y257.92
G0 X256.05 Y251.05
;TYPE:SKIN
G1 F900 E3859.39542
G1 F571.4 X243.95 Y251.05 E3864.67755
G1 X243.95 Y248.95 E3865.59428
G1 X256.05 Y248.95 E3870.87641
G1 X256.05 Y251.05 E3871.79314
;TIME_ELAPSED:3884.764794
G1 F2400 E3856.79314
M107
M104 S0 ; turn off temperature
G28 X0  ; home X axis
M84     ; disable motors
M82 ;absolute extrusion mode
M104 S0
;End of Gcode
;SETTING_3 {"global_quality": "[general]\\nversion = 4\\nname = Fine #2\\ndefini
;SETTING_3 tion = custom\\n\\n[metadata]\\ntype = quality_changes\\nquality_type
;SETTING_3  = normal\\nsetting_version = 27\\n\\n[values]\\nacceleration_enabled
;SETTING_3  = False\\nadhesion_extruder_nr = 1\\nadhesion_type = raft\\nbottom_l
;SETTING_3 ayers = 1\\nbottom_thickness = 0.5\\nbridge_fan_speed = 100\\nbridge_
;SETTING_3 settings_enabled = True\\nbridge_skin_speed = 10\\nbridge_wall_speed 
;SETTING_3 = 10\\nbrim_width = 10\\ncool_fan_enabled = True\\ncool_fan_full_at_h
;SETTING_3 eight = 0\\ncool_fan_full_layer = 1\\ncool_fan_speed = 100\\ncool_fan
;SETTING_3 _speed_0 = 100\\ncool_fan_speed_max = 100\\ncool_fan_speed_min = 100\
;SETTING_3 \ncool_min_layer_time = 5\\ncool_min_speed = 10\\nflooring_extruder_n
;SETTING_3 r = 1\\ninfill_angles = [45]\\ninfill_extruder_nr = 1\\ninfill_line_w
;SETTING_3 idth = 2\\ninfill_pattern = lines\\ninfill_sparse_density = 100\\njer
;SETTING_3 k_enabled = False\\nlayer_height = 0.5\\nlayer_height_0 = 0.5\\nline_
;SETTING_3 width = 2\\nmaterial_bed_temperature = 0\\nmaterial_bed_temperature_l
;SETTING_3 ayer_0 = 0\\nmaterial_diameter = 1.75\\nmaterial_print_temperature = 
;SETTING_3 250\\nmaterial_print_temperature_layer_0 = 250\\nmeshfix_maximum_reso
;SETTING_3 lution = 0.0125\\nraft_base_extruder_nr = 1\\nraft_base_fan_speed = 1
;SETTING_3 00\\nraft_base_line_width = 2\\nraft_base_thickness = 0.5\\nraft_inte
;SETTING_3 rface_extruder_nr = 1\\nraft_interface_fan_speed = 100\\nraft_interfa
;SETTING_3 ce_layers = 2\\nraft_interface_line_width = 2\\nraft_interface_thickn
;SETTING_3 ess = 0.5\\nraft_margin = 25\\nraft_surface_extruder_nr = 1\\nraft_su
;SETTING_3 rface_fan_speed = 100\\nraft_surface_layers = 3\\nraft_surface_line_w
;SETTING_3 idth = 2\\nraft_surface_thickness = 0.5\\nrelative_extrusion = False\
;SETTING_3 \nroofing_extruder_nr = 1\\nskin_line_width = 2\\nskirt_brim_extruder
;SETTING_3 _nr = 1\\nskirt_line_count = 0\\nspeed_infill = 10\\nspeed_layer_0 = 
;SETTING_3 10\\nspeed_print = 10\\nspeed_print_layer_0 = 10\\nspeed_support = 10
;SETTING_3 \\nspeed_support_infill = 10\\nspeed_topbottom = 10\\nspeed_travel = 
;SETTING_3 10\\nspeed_travel_layer_0 = 10\\nspeed_wall = 10\\nspeed_wall_0 = 10\
;SETTING_3 \nspeed_wall_x = 10\\nsupport_bottom_extruder_nr = 1\\nsupport_enable
;SETTING_3  = False\\nsupport_extruder_nr = 1\\nsupport_infill_extruder_nr = 1\\
;SETTING_3 nsupport_interface_extruder_nr = 1\\nsupport_line_width = 2\\nsupport
;SETTING_3 _pattern = grid\\nsupport_roof_extruder_nr = 1\\nsupport_structure = 
;SETTING_3 normal\\nsupport_type = everywhere\\nsupport_xy_distance = 1\\nsuppor
;SETTING_3 t_z_distance = 0.2\\ntop_bottom_extruder_nr = 1\\ntop_bottom_pattern 
;SETTING_3 = lines\\ntop_bottom_thickness = 0.5\\ntop_layers = 1\\ntop_thickness
;SETTING_3  = 0.5\\ntravel_avoid_other_parts = False\\ntravel_avoid_supports = F
;SETTING_3 alse\\nwall_0_extruder_nr = 1\\nwall_extruder_nr = 1\\nwall_line_coun
;SETTING_3 t = 4\\nwall_line_width = 2\\nwall_line_width_0 = 2\\nwall_line_width
;SETTING_3 _x = 2\\nwall_thickness = 8\\nwall_x_extruder_nr = 1\\n\\n", "extrude
;SETTING_3 r_quality": ["[general]\\nversion = 4\\nname = Fine #2\\ndefinition =
;SETTING_3  custom\\n\\n[metadata]\\ntype = quality_changes\\nquality_type = nor
;SETTING_3 mal\\nsetting_version = 27\\nposition = 0\\n\\n[values]\\ncool_fan_en
;SETTING_3 abled = True\\ncool_fan_speed = 100\\ncool_fan_speed_max = 100\\ncool
;SETTING_3 _fan_speed_min = 100\\nline_width = 2\\nmaterial_bed_temperature = 0\
;SETTING_3 \nmaterial_bed_temperature_layer_0 = 0\\nmaterial_diameter = 1.75\\nm
;SETTING_3 aterial_flow = 100\\nmaterial_print_temperature = 250\\nmaterial_prin
;SETTING_3 t_temperature_layer_0 = 250\\nmaterial_type = ABS\\nretraction_amount
;SETTING_3  = 15\\nretraction_enable = True\\nretraction_extra_prime_amount = 7.
;SETTING_3 22\\nretraction_hop_enabled = False\\nretraction_min_travel = 2\\nret
;SETTING_3 raction_prime_speed = 15\\nretraction_retract_speed = 40\\nretraction
;SETTING_3 _speed = 40\\nswitch_extruder_retraction_amount = 10\\n\\n", "[genera
;SETTING_3 l]\\nversion = 4\\nname = Fine #2\\ndefinition = custom\\n\\n[metadat
;SETTING_3 a]\\ntype = quality_changes\\nquality_type = normal\\nsetting_version
;SETTING_3  = 27\\nposition = 1\\n\\n[values]\\ncool_fan_enabled = True\\ncool_f
;SETTING_3 an_speed = 100\\ncool_fan_speed_max = 100\\ncool_fan_speed_min = 100\
;SETTING_3 \nline_width = 2\\nmaterial_bed_temperature = 0\\nmaterial_bed_temper
;SETTING_3 ature_layer_0 = 0\\nmaterial_diameter = 1.75\\nmaterial_flow = 100\\n
;SETTING_3 material_print_temperature = 250\\nmaterial_print_temperature_layer_0
;SETTING_3  = 250\\nmaterial_type = ABS\\nretraction_amount = 15\\nretraction_en
;SETTING_3 able = True\\nretraction_extra_prime_amount = 7.22\\nretraction_hop_e
;SETTING_3 nabled = False\\nretraction_min_travel = 2\\nretraction_prime_speed =
;SETTING_3  15\\nretraction_retract_speed = 40\\nretraction_speed = 40\\nswitch_
;SETTING_3 extruder_retraction_amount = 10\\n\\n"]}
